{
  "type": "FeatureCollection",
  "features": [
    {
      "type": "Feature",
      "properties": {
        "norad_id": 34964,
        "name": "COSMOS 2251 DEB",
        "group": "cosmos-2251-debris",
        "lat": 56.86947224560519,
        "lon": -12.394173200215365,
        "alt_km": 950.7511630343861,
        "timestamp": "2025-12-27T21:25:02.912466+00:00",
        "meta_object_name": "COSMOS 2251 DEB",
        "meta_object_id": "1993-036AET",
        "meta_epoch": "2025-12-18T07:25:04.519776",
        "meta_mean_motion": 14.00628567,
        "meta_eccentricity": 0.02123167,
        "meta_inclination": 73.9712,
        "meta_ra_of_asc_node": 338.1457,
        "meta_arg_of_pericenter": 195.4091,
        "meta_mean_anomaly": 164.0515,
        "meta_ephemeris_type": 0,
        "meta_classification_type": "U",
        "meta_norad_cat_id": 34964,
        "meta_element_set_no": 999,
        "meta_rev_at_epoch": 84556,
        "meta_bstar": 0.00089791859,
        "meta_mean_motion_dot": 1.6e-05,
        "meta_mean_motion_ddot": 0,
        "tle_line1": "1 34964U 93036AET 25352.30908009  .00001600  00000+0  89792-3 0  9997",
        "tle_line2": "2 34964  73.9712 338.1457 0212316 195.4091 164.0515 14.00628567845561"
      },
      "geometry": {
        "type": "Point",
        "coordinates": [
          -12.394173200215365,
          56.86947224560519
        ]
      }
    },
    {
      "type": "Feature",
      "properties": {
        "norad_id": 34965,
        "name": "COSMOS 2251 DEB",
        "group": "cosmos-2251-debris",
        "lat": -50.7728881015477,
        "lon": -59.39531737670449,
        "alt_km": 717.7850331290756,
        "timestamp": "2025-12-27T21:25:02.912477+00:00",
        "meta_object_name": "COSMOS 2251 DEB",
        "meta_object_id": "1993-036AEU",
        "meta_epoch": "2025-12-27T00:27:15.902784",
        "meta_mean_motion": 14.48744245,
        "meta_eccentricity": 0.00263377,
        "meta_inclination": 74.052,
        "meta_ra_of_asc_node": 101.7354,
        "meta_arg_of_pericenter": 227.1535,
        "meta_mean_anomaly": 132.7412,
        "meta_ephemeris_type": 0,
        "meta_classification_type": "U",
        "meta_norad_cat_id": 34965,
        "meta_element_set_no": 999,
        "meta_rev_at_epoch": 87320,
        "meta_bstar": 0.00040692058,
        "meta_mean_motion_dot": 1.514e-05,
        "meta_mean_motion_ddot": 0,
        "tle_line1": "1 34965U 93036AEU 25361.01893406  .00001514  00000+0  40692-3 0  9990",
        "tle_line2": "2 34965  74.0520 101.7354 0026337 227.1535 132.7412 14.48744245873207"
      },
      "geometry": {
        "type": "Point",
        "coordinates": [
          -59.39531737670449,
          -50.7728881015477
        ]
      }
    },
    {
      "type": "Feature",
      "properties": {
        "norad_id": 34967,
        "name": "COSMOS 2251 DEB",
        "group": "cosmos-2251-debris",
        "lat": -72.43398497870523,
        "lon": 110.66582070097017,
        "alt_km": 758.5622435339073,
        "timestamp": "2025-12-27T21:25:02.912487+00:00",
        "meta_object_name": "COSMOS 2251 DEB",
        "meta_object_id": "1993-036AEW",
        "meta_epoch": "2025-12-24T22:23:05.722368",
        "meta_mean_motion": 14.44316705,
        "meta_eccentricity": 0.0038667,
        "meta_inclination": 73.9924,
        "meta_ra_of_asc_node": 231.1127,
        "meta_arg_of_pericenter": 14.6551,
        "meta_mean_anomaly": 345.5717,
        "meta_ephemeris_type": 0,
        "meta_classification_type": "U",
        "meta_norad_cat_id": 34967,
        "meta_element_set_no": 999,
        "meta_rev_at_epoch": 65133,
        "meta_bstar": 0.00061268,
        "meta_mean_motion_dot": 2.1e-05,
        "meta_mean_motion_ddot": 0,
        "tle_line1": "1 34967U 93036AEW 25358.93270512  .00002100  00000+0  61268-3 0  9990",
        "tle_line2": "2 34967  73.9924 231.1127 0038667  14.6551 345.5717 14.44316705651339"
      },
      "geometry": {
        "type": "Point",
        "coordinates": [
          110.66582070097017,
          -72.43398497870523
        ]
      }
    },
    {
      "type": "Feature",
      "properties": {
        "norad_id": 34968,
        "name": "COSMOS 2251 DEB",
        "group": "cosmos-2251-debris",
        "lat": -39.83242721027152,
        "lon": 51.99740498768732,
        "alt_km": 724.9538773399772,
        "timestamp": "2025-12-27T21:25:02.912498+00:00",
        "meta_object_name": "COSMOS 2251 DEB",
        "meta_object_id": "1993-036AEX",
        "meta_epoch": "2025-12-26T21:22:00.377760",
        "meta_mean_motion": 14.59429118,
        "meta_eccentricity": 0.0087295,
        "meta_inclination": 74.0371,
        "meta_ra_of_asc_node": 220.0941,
        "meta_arg_of_pericenter": 336.9625,
        "meta_mean_anomaly": 22.7634,
        "meta_ephemeris_type": 0,
        "meta_classification_type": "U",
        "meta_norad_cat_id": 34968,
        "meta_element_set_no": 999,
        "meta_rev_at_epoch": 88684,
        "meta_bstar": 0.00015768,
        "meta_mean_motion_dot": 7.55e-06,
        "meta_mean_motion_ddot": 0,
        "tle_line1": "1 34968U 93036AEX 25360.89028215  .00000755  00000+0  15768-3 0  9998",
        "tle_line2": "2 34968  74.0371 220.0941 0087295 336.9625  22.7634 14.59429118886849"
      },
      "geometry": {
        "type": "Point",
        "coordinates": [
          51.99740498768732,
          -39.83242721027152
        ]
      }
    },
    {
      "type": "Feature",
      "properties": {
        "norad_id": 34969,
        "name": "COSMOS 2251 DEB",
        "group": "cosmos-2251-debris",
        "lat": -73.53146434400625,
        "lon": -80.41237497790398,
        "alt_km": 835.9042764660089,
        "timestamp": "2025-12-27T21:25:02.912508+00:00",
        "meta_object_name": "COSMOS 2251 DEB",
        "meta_object_id": "1993-036AEY",
        "meta_epoch": "2025-12-26T17:19:34.272480",
        "meta_mean_motion": 14.3227655,
        "meta_eccentricity": 0.007302,
        "meta_inclination": 74.0139,
        "meta_ra_of_asc_node": 357.5919,
        "meta_arg_of_pericenter": 127.2117,
        "meta_mean_anomaly": 233.5728,
        "meta_ephemeris_type": 0,
        "meta_classification_type": "U",
        "meta_norad_cat_id": 34969,
        "meta_element_set_no": 999,
        "meta_rev_at_epoch": 65337,
        "meta_bstar": 0.00027741107,
        "meta_mean_motion_dot": 7.45e-06,
        "meta_mean_motion_ddot": 0,
        "tle_line1": "1 34969U 93036AEY 25360.72192445  .00000745  00000+0  27741-3 0  9991",
        "tle_line2": "2 34969  74.0139 357.5919 0073020 127.2117 233.5728 14.32276550653378"
      },
      "geometry": {
        "type": "Point",
        "coordinates": [
          -80.41237497790398,
          -73.53146434400625
        ]
      }
    },
    {
      "type": "Feature",
      "properties": {
        "norad_id": 34971,
        "name": "COSMOS 2251 DEB",
        "group": "cosmos-2251-debris",
        "lat": 70.52043297813475,
        "lon": -49.477566348453486,
        "alt_km": 661.8734496260031,
        "timestamp": "2025-12-27T21:25:02.912519+00:00",
        "meta_object_name": "COSMOS 2251 DEB",
        "meta_object_id": "1993-036AFA",
        "meta_epoch": "2025-12-26T23:41:25.656000",
        "meta_mean_motion": 14.55655373,
        "meta_eccentricity": 0.0069172,
        "meta_inclination": 73.9782,
        "meta_ra_of_asc_node": 257.9161,
        "meta_arg_of_pericenter": 119.8318,
        "meta_mean_anomaly": 257.3481,
        "meta_ephemeris_type": 0,
        "meta_classification_type": "U",
        "meta_norad_cat_id": 34971,
        "meta_element_set_no": 999,
        "meta_rev_at_epoch": 66380,
        "meta_bstar": 0.00018757,
        "meta_mean_motion_dot": 8.16e-06,
        "meta_mean_motion_ddot": 0,
        "tle_line1": "1 34971U 93036AFA 25360.98710250  .00000816  00000+0  18757-3 0  9998",
        "tle_line2": "2 34971  73.9782 257.9161 0069172 119.8318 257.3481 14.55655373663806"
      },
      "geometry": {
        "type": "Point",
        "coordinates": [
          -49.477566348453486,
          70.52043297813475
        ]
      }
    },
    {
      "type": "Feature",
      "properties": {
        "norad_id": 34972,
        "name": "COSMOS 2251 DEB",
        "group": "cosmos-2251-debris",
        "lat": -14.648751581299932,
        "lon": -155.44358355919164,
        "alt_km": 633.87012466531,
        "timestamp": "2025-12-27T21:25:02.912564+00:00",
        "meta_object_name": "COSMOS 2251 DEB",
        "meta_object_id": "1993-036AFB",
        "meta_epoch": "2025-12-26T12:37:34.370400",
        "meta_mean_motion": 14.7310501,
        "meta_eccentricity": 0.0032419,
        "meta_inclination": 73.9877,
        "meta_ra_of_asc_node": 22.9204,
        "meta_arg_of_pericenter": 179.2872,
        "meta_mean_anomaly": 332.9317,
        "meta_ephemeris_type": 0,
        "meta_classification_type": "U",
        "meta_norad_cat_id": 34972,
        "meta_element_set_no": 999,
        "meta_rev_at_epoch": 87853,
        "meta_bstar": 0.0013355,
        "meta_mean_motion_dot": 8.649e-05,
        "meta_mean_motion_ddot": 0,
        "tle_line1": "1 34972U 93036AFB 25360.52609225  .00008649  00000+0  13355-2 0  9998",
        "tle_line2": "2 34972  73.9877  22.9204 0032419 179.2872 332.9317 14.73105010878533"
      },
      "geometry": {
        "type": "Point",
        "coordinates": [
          -155.44358355919164,
          -14.648751581299932
        ]
      }
    }
  ]
}